AEROCUBE 12A            
1 43556U 18046C   19240.96970759  .00000411  00000-0  27079-4 0  9995
2 43556  51.6422  74.7060 0007971 329.6633  30.3885 15.28848558 62464
AEROCUBE 12B            
1 43557U 18046D   19241.77401025 -.00000075  00000-0  10010-4 0  9995
2 43557  51.6430  71.0706 0008083 332.3809  27.6740 15.28708294 62531
UITMSAT-1               
1 43589U 98067PD  19241.30608841  .00009839  00000-0  11117-3 0  9999
2 43589  51.6371 341.2954 0005570  60.0589 300.0958 15.63177652 59942
MAYA-1                  
1 43590U 98067PE  19240.53319139  .00011878  00000-0  13296-3 0  9990
2 43590  51.6375 345.1391 0005611  58.7017 301.4526 15.63177933 59759
BHUTAN-1                
1 43591U 98067PF  19241.67192000  .00009242  00000-0  10444-3 0  9997
2 43591  51.6383 339.2720 0005812  62.5014 297.6570 15.63261571 59939
SIRIUSSAT-1             
1 43595U 98067PG  19241.31337803  .00009039  00000-0  10592-3 0  9992
2 43595  51.6373 342.8498 0003734  23.0502 337.0659 15.62355419 59031
SIRIUSSAT-2             
1 43596U 98067PH  19241.67097584  .00008296  00000-0  98308-4 0  9997
2 43596  51.6384 341.5306 0004291  24.0425 336.0768 15.62193326 59084
TANUSHA-3               
1 43597U 98067PJ  19241.14300209  .00014178  00000-0  15203-3 0  9999
2 43597  51.6366 341.6805 0003878  34.0776 326.0467 15.64099237 59038
SURFSAT                 
1 43614U 18070B   19241.38117609  .00001599  00000-0  43168-4 0  9996
2 43614  93.0272  33.2450 0017389  37.3761 322.8698 15.37752171 53426
CP7 (DAVE)              
1 43615U 18070C   19240.87023450  .00001578  00000-0  42706-4 0  9994
2 43615  93.0273  33.0333 0017620  38.6848 321.5664 15.37658438 53345
ELFIN-B                 
1 43616U 18070D   19241.36784532  .00002284  00000-0  60312-4 0  9993
2 43616  93.0235  33.1473 0018375  39.9917 320.2686 15.38373642 53431
ELFIN-A                 
1 43617U 18070E   19240.90421544  .00002587  00000-0  68197-4 0  9999
2 43617  93.0290  33.2264 0017509  39.0283 321.2230 15.38427283 53366
CUBEBEL-1 (BSUSAT-1)    
1 43666U 18083E   19241.75862882  .00000421  00000-0  24275-4 0  9999
2 43666  97.5173 265.7374 0013622 302.0230 181.9108 15.17677347 46216
DEBRISSAT-2             
1 43680U 98067PR  19241.78417748  .00014401  00000-0  14700-3 0  9999
2 43680  51.6373 337.7568 0003591  47.1935 312.9362 15.65340490 67875
CICERO 10               
1 43690U 18088A   19241.26805626  .00000511  00000-0  22037-4 0  9994
2 43690  85.0353 271.3854 0013182 311.5440  48.4670 15.19737557 44200
IRVINE01                
1 43693U 18088D   19241.23818549  .00001421  00000-0  61095-4 0  9990
2 43693  85.0330 270.8619 0016018 293.1034  66.8519 15.21577894 44245
PROXIMA I               
1 43694U 18088E   19241.39632030  .00000596  00000-0  24654-4 0  9999
2 43694  85.0297 270.5662 0017092 282.4648  77.4681 15.21461531 44279
PROXIMA II              
1 43696U 18088G   19240.86906901  .00000582  00000-0  24036-4 0  9992
2 43696  85.0297 270.9161 0017144 284.6051  75.3289 15.21465637 44192
FACSAT-1                
1 43721U 18096C   19241.71765542  .00000808  00000-0  33742-4 0  9994
2 43721  97.4550 311.4532 0019587  77.6774 282.6655 15.26426762 41725
CENTAURI-2              
1 43722U 18096D   19241.29408727  .00001248  00000-0  50163-4 0  9992
2 43722  97.4552 311.1025 0019749  79.4970 280.8493 15.26673504 41650
INNOSAT-2               
1 43738U 18096V   19241.71247605  .00001719  00000-0  63442-4 0  9999
2 43738  97.4557 312.3838 0026074  87.9111 272.5114 15.28879155 41781
SIRION PATHFINDER-2     
1 43759U 18099B   19241.73004690  .00000083  00000-0  12813-4 0  9991
2 43759  97.7403 312.8159 0015765  81.8315 278.4693 14.95150008 40184
CORVUS-BC 4             
1 43767U 18099K   19240.89260358  .00000236  00000-0  27086-4 0  9999
2 43767  97.7393 311.7113 0013418  87.3174 272.9582 14.94595347 40056
MOVE-II                 
1 43780U 18099Y   19240.74692066  .00000695  00000-0  68507-4 0  9995
2 43780  97.7401 311.7536 0015239  95.5160 264.7799 14.95103730 40027
SPACEBEE-7              
1 43816U 18099BL  19241.14986539  .00000672  00000-0  65912-4 0  9993
2 43816  97.7415 312.3498 0015049  80.8266 279.4656 14.95448708 39658
SPACEBEE-5              
1 43817U 18099BM  19241.19068344  .00000384  00000-0  39652-4 0  9996
2 43817  97.7436 312.4945 0014689  81.5641 278.7244 14.95724449 39669
SPACEBEE-6              
1 43818U 18099BN  19241.34172158  .00000692  00000-0  67510-4 0  9999
2 43818  97.7420 312.5729 0014929  80.5017 279.7891 14.95537100 39831
SHIELDS 1               
1 43850U 18104B   19240.62968307  .00000042  00000-0  00000-0 0  9997
2 43850  85.0293   9.5607 0017423  71.7880 288.5269 15.21122499 38809
STF-1                   
1 43852U 18104D   19241.70915030  .00000042  00000-0  00000+0 0  9993
2 43852  85.0354   9.1457 0017360  81.3393 278.9808 15.20693612 38951
ZACUBE-2                
1 43907U 18111AH  19241.75959724  .00000317  00000-0  15768-4 0  9992
2 43907  97.2832 144.9968 0023461  96.4801 263.9109 15.24237988 37426
LUME 1                  
1 43908U 18111AJ  19240.69453356  .00000638  00000-0  28677-4 0  9994
2 43908  97.2833 143.9933 0023366  99.9765 260.4111 15.24421568 37266
AOBA VELOX-IV           
1 43940U 19003J   19241.66172780  .00001077  00000-0  47039-4 0  9999
2 43940  97.2717 297.4278 0024734 174.1838 340.9377 15.23964777 34041
CATSAT-2                
1 44029U 98067PV  19241.69420435  .00007703  00000-0  10963-3 0  9998
2 44029  51.6408 350.7034 0005172  58.7037 301.4461 15.57412841 32790
DELPHINI                
1 44030U 98067PW  19241.68133850  .00006695  00000-0  95585-4 0  9994
2 44030  51.6391 350.5991 0004875  55.3719 304.7732 15.57583083 32763
UNITE                   
1 44031U 98067PX  19240.86732640  .00005286  00000-0  80444-4 0  9999
2 44031  51.6403 355.6680 0003657  51.8931 308.2389 15.56333286 32622
TECHEDSAT 8             
1 44032U 98067PY  19240.92722344  .00022167  00000-0  25270-3 0  9999
2 44032  51.6387 350.8138 0003640  41.0976 319.0292 15.62153584 32677
CATSAT-1                
1 44033U 98067PZ  19241.69390084  .00006243  00000-0  90148-4 0  9991
2 44033  51.6409 350.7021 0005062  59.0794 301.0695 15.57410961 32701
RAAVANA-1               
1 44329U 98067QE  19241.17346359  .00004768  00000-0  83416-4 0  9998
2 44329  51.6422 358.4701 0007240 352.3979   7.6900 15.52658310 11362
UGUISU                  
1 44330U 98067QF  19241.69015151  .00004437  00000-0  78241-4 0  9993
2 44330  51.6423 355.9207 0007228 352.9206   7.1681 15.52624260 11428
NEPALISAT-1             
1 44331U 98067QG  19241.17182345  .00004763  00000-0  83235-4 0  9998
2 44331  51.6422 358.4596 0007275 353.6977   6.3921 15.52693133 11357
SPOOQY-1                
1 44332U 98067QH  19240.91267375  .00005236  00000-0  90659-4 0  9991
2 44332  51.6419 359.7271 0006024 355.4867   4.6068 15.52725645 11275
SPACEBEE-9              
1 44370U 19037F   19241.21426923  .00002664  00000-0  74768-4 0  9998
2 44370  45.0152 310.2121 0016589 263.7154  96.1878 15.39504444  9359
SPACEBEE-8              
1 44371U 19037G   19241.20490479  .00005572  00000-0  14473-3 0  9992
2 44371  45.0096 310.1431 0017251 263.6575  96.2389 15.39948127  9340
MOVE-IIB                
1 44398U 19038N   19241.17767574  .00000874  00000-0  54823-4 0  9995
2 44398  97.4940 202.0567 0027221  59.4783 300.9129 15.11635790  8263
SONATE                  
1 44400U 19038Q   19241.17626157  .00000422  00000-0  28440-4 0  9995
2 44400  97.4952 202.0591 0026903  57.8984 302.4853 15.11652092  8263
LUCKY-7                 
1 44406U 19038W   19240.83864736  .00000467  00000-0  30914-4 0  9998
2 44406  97.4949 201.7429 0026415  58.9850 301.3969 15.11839383  8203
BEESAT 9                
1 44412U 19038AC  19240.84059081  .00000630  00000-0  40435-4 0  9996
2 44412  97.4948 201.7394 0024650  64.5416 295.8361 15.11792799  7908
JAISAT-1                
1 44419U 19038F   19241.35207238  .00000470  00000-0  30749-4 0  9998
2 44419  97.4950 202.2837 0023434  62.8958 297.4659 15.12287927  8291
SWIATOWID               
1 44426U 98067QL  19240.87805622  .00008746  00000-0  14857-3 0  9997
2 44426  51.6430   0.2512 0004202 310.4177  49.6446 15.52296509  8793
KRAKSAT                 
1 44427U 98067QM  19241.33960956  .00003928  00000-0  71734-4 0  9997
2 44427  51.6438 358.0100 0003443 319.0676  73.0721 15.51972310  8904
VCC A                   
1 44428U 98067QN  19240.55348409  .00005477  00000-0  96146-4 0  9999
2 44428  51.6435   1.8344 0003158 329.6159  30.4647 15.52228400  8786
ENTRYSAT                
1 44429U 98067QP  19241.71045373  .00005204  00000-0  91396-4 0  9993
2 44429  51.6431 356.0617 0003061 325.3256  34.7534 15.52333077  8964
VCC C                   
1 44430U 98067QQ  19241.71205753  .00005817  00000-0  10137-3 0  9998
2 44430  51.6430 356.0721 0003287 334.8345  25.2484 15.52302894  7786
VCC B                   
1 44431U 98067QR  19241.32709547  .00005141  00000-0  90764-4 0  9991
2 44431  51.6430 358.0008 0003353 331.3188  28.7617 15.52213087  8847
